[{"OBJECT_NAME":"STARLINK-1764","OBJECT_ID":"2020-062U","EPOCH":"2026-03-09T21:50:11.933376","MEAN_MOTION":15.66750924,"ECCENTRICITY":4.732e-5,"INCLINATION":53.045,"RA_OF_ASC_NODE":315.9893,"ARG_OF_PERICENTER":302.3182,"MEAN_ANOMALY":57.7787,"EPHEMERIS_TYPE":0,"CLASSIFICATION_TYPE":"U","NORAD_CAT_ID":46343,"ELEMENT_SET_NO":999,"REV_AT_EPOCH":30518,"BSTAR":0.00099332612,"MEAN_MOTION_DOT":0.00107455,"MEAN_MOTION_DDOT":0},{"OBJECT_NAME":"CZ-6A DEB","OBJECT_ID":"2024-140AY","EPOCH":"2026-03-09T23:18:41.702400","MEAN_MOTION":15.62067616,"ECCENTRICITY":0.0034385,"INCLINATION":89.347,"RA_OF_ASC_NODE":305.7787,"ARG_OF_PERICENTER":51.1175,"MEAN_ANOMALY":309.3152,"EPHEMERIS_TYPE":0,"CLASSIFICATION_TYPE":"U","NORAD_CAT_ID":60647,"ELEMENT_SET_NO":999,"REV_AT_EPOCH":8292,"BSTAR":0.0060093898,"MEAN_MOTION_DOT":0.00575832,"MEAN_MOTION_DDOT":0}]
